NORAD_CAT_ID,OBJECT_NAME,OBJECT_TYPE,EPOCH,MEAN_MOTION,ECCENTRICITY,INCLINATION,RA_OF_ASC_NODE,ARG_OF_PERICENTER,MEAN_ANOMALY,BSTAR,MEAN_MOTION_DOT,MEAN_MOTION_DDOT,TLE_LINE0,TLE_LINE1,TLE_LINE2,SEMIMAJOR_AXIS,PERIOD,APOGEE,PERIGEE,DECAYED
56488.0,STARLINK-6204,PAYLOAD,2024-05-06 22:06:10,14.98330428,0.0003021,69.9991,358.4026,271.3872,88.6941,8.0867e-05,8.72e-06,0.0,0 STARLINK-6204,1 56488U 23064AS  24127.92095546  .00000872  00000-0  80867-4 0  9992,2 56488  69.9991 358.4026 0003021 271.3872  88.6941 14.98330428 55604,6950.192,96.107,574.156,569.957,0.0
56488.0,STARLINK-6204,PAYLOAD,2024-05-07 01:18:26,14.98331617,0.000301,69.9991,358.0659,271.3965,88.685,9.0546e-05,9.88e-06,0.0,0 STARLINK-6204,1 56488U 23064AS  24128.05447432  .00000988  00000-0  90546-4 0  9995,2 56488  69.9991 358.0659 0003010 271.3965  88.6850 14.98331617 55625,6950.188,96.107,574.145,569.961,0.0
56488.0,STARLINK-6204,PAYLOAD,2024-05-07 20:32:03,14.98327474,0.0002853,70.0,356.0459,270.0419,90.0413,-5.7223e-05,-7.76e-06,0.0,0 STARLINK-6204,1 56488U 23064AS  24128.85560157 -.00000776  00000-0 -57223-4 0  9995,2 56488  70.0000 356.0459 0002853 270.0419  90.0413 14.98327474 56101,6950.201,96.107,574.049,570.083,0.0
56488.0,STARLINK-6204,PAYLOAD,2024-05-07 22:08:12,14.9832719,0.0002895,69.9997,355.8776,269.9455,90.1373,-5.9169e-05,-7.99e-06,0.0,0 STARLINK-6204,1 56488U 23064AS  24128.92236178 -.00000799  00000-0 -59169-4 0  9992,2 56488  69.9997 355.8776 0002895 269.9455  90.1373 14.98327190 55756,6950.202,96.107,574.079,570.054,0.0
56488.0,STARLINK-6204,PAYLOAD,2024-05-08 07:45:04,14.98280752,0.0003353,69.9992,354.8676,273.1639,86.9137,-0.00055279,-6.674e-05,0.0,0 STARLINK-6204,1 56488U 23064AS  24129.32296711 -.00006674  00000-0 -55279-3 0  9991,2 56488  69.9992 354.8676 0003353 273.1639  86.9137 14.98280752 56170,6950.345,96.11,574.541,569.88,0.0
56488.0,STARLINK-6204,PAYLOAD,2024-05-08 14:09:36,14.98280191,0.0004374,69.9991,354.1942,270.9368,89.129,-0.00050807,-6.143e-05,0.0,0 STARLINK-6204,1 56488U 23064AS  24129.59000982 -.00006143  00000-0 -50807-3 0  9996,2 56488  69.9991 354.1942 0004374 270.9368  89.1290 14.98280191 55852,6950.347,96.11,575.252,569.172,0.0
56488.0,STARLINK-6204,PAYLOAD,2024-05-08 20:34:05,14.98330072,0.0002295,70.0012,353.5226,262.1344,97.9555,-9.8682e-05,-1.27e-05,0.0,0 STARLINK-6204,1 56488U 23064AS  24129.85701305 -.00001270  00000-0 -98682-4 0  9992,2 56488  70.0012 353.5226 0002295 262.1344  97.9555 14.98330072 56254,6950.193,96.107,573.653,570.463,0.0
56488.0,STARLINK-6204,PAYLOAD,2024-05-08 22:10:13,14.98329661,0.0003191,69.9991,353.3526,273.9143,86.1651,5.5646e-05,5.71e-06,0.0,0 STARLINK-6204,1 56488U 23064AS  24129.92376880  .00000571  00000-0  55646-4 0  9990,2 56488  69.9991 353.3526 0003191 273.9143  86.1651 14.98329661 55901,6950.194,96.107,574.277,569.841,0.0
56488.0,STARLINK-6204,PAYLOAD,2024-05-09 01:22:29,14.98333398,0.0003204,69.9989,353.0157,271.3239,88.7553,7.2917e-05,7.77e-06,0.0,0 STARLINK-6204,1 56488U 23064AS  24130.05728576  .00000777  00000-0  72917-4 0  9997,2 56488  69.9989 353.0157 0003204 271.3239  88.7553 14.98333398 56281,6950.182,96.107,574.274,569.821,0.0
56488.0,STARLINK-6204,PAYLOAD,2024-05-09 07:47:01,14.98331624,0.0003583,69.9983,352.3422,269.1653,90.9095,0.00024119,2.786e-05,0.0,0 STARLINK-6204,1 56488U 23064AS  24130.32432167  .00002786  00000-0  24119-3 0  9997,2 56488  69.9983 352.3422 0003583 269.1653  90.9095 14.98331624 55967,6950.188,96.107,574.543,569.563,0.0
56488.0,STARLINK-6204,PAYLOAD,2024-05-09 20:36:04,14.98343002,0.0002562,70.0006,350.996,260.7496,99.3374,0.00032429,3.78e-05,0.0,0 STARLINK-6204,1 56488U 23064AS  24130.85839083  .00003780  00000-0  32429-3 0  9991,2 56488  70.0006 350.9960 0002562 260.7496  99.3374 14.98343002 56401,6950.153,96.106,573.798,570.237,0.0
56488.0,STARLINK-6204,PAYLOAD,2024-05-09 22:12:12,14.98345062,0.000251,70.0004,350.8278,261.1449,98.9426,0.00033523,3.911e-05,0.0,0 STARLINK-6204,1 56488U 23064AS  24130.92514879  .00003911  00000-0  33523-3 0  9994,2 56488  70.0004 350.8278 0002510 261.1449  98.9426 14.98345062 56058,6950.146,96.106,573.756,570.267,0.0
56488.0,STARLINK-6204,PAYLOAD,2024-05-10 07:49:01,14.98342398,0.0002856,70.0015,349.8172,291.2774,68.808,0.00021014,2.416e-05,0.0,0 STARLINK-6204,1 56488U 23064AS  24131.32571194  .00002416  00000-0  21014-3 0  9993,2 56488  70.0015 349.8172 0002856 291.2774  68.8080 14.98342398 56476,6950.155,96.106,574.005,570.035,0.0
56488.0,STARLINK-6204,PAYLOAD,2024-05-10 14:13:34,14.98331224,0.0002679,70.0028,349.1448,279.5943,80.4913,0.00035032,4.09e-05,0.0,0 STARLINK-6204,1 56488U 23064AS  24131.59275645  .00004090  00000-0  35032-3 0  9999,2 56488  70.0028 349.1448 0002679 279.5943  80.4913 14.98331224 56155,6950.189,96.107,573.916,570.192,0.0
56488.0,STARLINK-6204,PAYLOAD,2024-05-10 22:14:14,14.9834442,0.0002991,69.9991,348.3022,272.621,87.4607,4.586e-05,4.54e-06,0.0,0 STARLINK-6204,1 56488U 23064AS  24131.92655332  .00000454  00000-0  45860-4 0  9992,2 56488  69.9991 348.3022 0002991 272.6210  87.4607 14.98344420 56203,6950.148,96.106,574.092,569.935,0.0
56488.0,STARLINK-6204,PAYLOAD,2024-05-11 20:40:09,14.98308687,0.0002655,69.9992,345.9458,263.9704,96.1152,-0.0006819,-8.215e-05,0.0,0 STARLINK-6204,1 56488U 23064AS  24132.86122088 -.00008215  00000-0 -68190-3 0  9998,2 56488  69.9992 345.9458 0002655 263.9704  96.1152 14.98308687 56700,6950.259,96.108,573.969,570.279,0.0
56488.0,STARLINK-6204,PAYLOAD,2024-05-11 22:16:17,14.98308268,0.0002859,69.9988,345.7768,267.5833,92.4999,-0.00067284,-8.107e-05,0.0,0 STARLINK-6204,1 56488U 23064AS  24132.92798115 -.00008107  00000-0 -67284-3 0  9998,2 56488  69.9988 345.7768 0002859 267.5833  92.4999 14.98308268 56350,6950.26,96.108,574.112,570.138,0.0
56488.0,STARLINK-6204,PAYLOAD,2024-05-12 07:53:08,14.98280249,0.0002599,69.9989,344.7669,271.2885,88.7976,-0.00069744,-8.394e-05,0.0,0 STARLINK-6204,1 56488U 23064AS  24133.32856756 -.00008394  00000-0 -69744-3 0  9990,2 56488  69.9989 344.7669 0002599 271.2885  88.7976 14.98280249 56777,6950.347,96.11,574.018,570.405,0.0
56488.0,STARLINK-6204,PAYLOAD,2024-05-12 14:17:41,14.98271759,0.0002374,69.9988,344.0948,277.9961,82.0929,-0.00063621,-7.664e-05,0.0,0 STARLINK-6204,1 56488U 23064AS  24133.59561991 -.00007664  00000-0 -63621-3 0  9990,2 56488  69.9988 344.0948 0002374 277.9961  82.0929 14.98271759 56454,6950.373,96.111,573.888,570.588,0.0
56488.0,STARLINK-6204,PAYLOAD,2024-05-12 20:42:10,14.98317043,0.00028,69.9987,343.4207,271.4412,88.6426,-0.00013956,-1.757e-05,0.0,0 STARLINK-6204,1 56488U 23064AS  24133.86262421 -.00001757  00000-0 -13956-3 0  9999,2 56488  69.9987 343.4207 0002800 271.4412  88.6426 14.98317043 56853,6950.233,96.108,574.044,570.152,0.0
56488.0,STARLINK-6204,PAYLOAD,2024-05-12 22:18:18,14.9831695,0.0002738,69.9986,343.252,272.7183,87.3662,-0.00014752,-1.852e-05,0.0,0 STARLINK-6204,1 56488U 23064AS  24133.92938551 -.00001852  00000-0 -14752-3 0  9991,2 56488  69.9986 343.2520 0002738 272.7183  87.3662 14.98316950 56503,6950.233,96.108,574.001,570.195,0.0
56488.0,STARLINK-6204,PAYLOAD,2024-05-12 23:54:27,14.98317537,0.0002726,69.9987,343.084,273.3514,86.7333,-0.00014379,-1.808e-05,0.0,0 STARLINK-6204,1 56488U 23064AS  24133.99614647 -.00001808  00000-0 -14379-3 0  9991,2 56488  69.9987 343.0840 0002726 273.3514  86.7333 14.98317537 56510,6950.231,96.108,573.991,570.202,0.0
56488.0,STARLINK-6204,PAYLOAD,2024-05-13 20:44:11,14.98300516,0.0002472,69.9981,340.8952,267.1709,92.9167,0.00052292,6.147e-05,0.0,0 STARLINK-6204,1 56488U 23064AS  24134.86402166  .00006147  00000-0  52292-3 0  9994,2 56488  69.9981 340.8952 0002472 267.1709  92.9167 14.98300516 56645,6950.284,96.109,573.867,570.431,0.0
56488.0,STARLINK-6204,PAYLOAD,2024-05-14 12:45:32,14.98307822,0.0002353,69.9989,339.2098,274.5979,85.4911,0.00064893,7.654e-05,0.0,0 STARLINK-6204,1 56488U 23064AS  24135.53162496  .00007654  00000-0  64893-3 0  9992,2 56488  69.9989 339.2098 0002353 274.5979  85.4911 14.98307822 56747,6950.261,96.108,573.762,570.491,0.0
56488.0,STARLINK-6204,PAYLOAD,2024-05-14 22:22:20,14.98321022,0.000227,69.998,338.2009,266.0163,94.0736,0.00065637,7.745e-05,0.0,0 STARLINK-6204,1 56488U 23064AS  24135.93217875  .00007745  00000-0  65637-3 0  9996,2 56488  69.9980 338.2009 0002270 266.0163  94.0736 14.98321022 56804,6950.221,96.108,573.663,570.508,0.0
56488.0,STARLINK-6204,PAYLOAD,2024-05-14 23:58:28,14.98322646,0.0002298,69.9994,338.0334,269.0288,91.0607,0.00068217,8.054e-05,0.0,0 STARLINK-6204,1 56488U 23064AS  24135.99893722  .00008054  00000-0  68217-3 0  9994,2 56488  69.9994 338.0334 0002298 269.0288  91.0607 14.98322646 57177,6950.216,96.107,573.678,570.483,0.0
56488.0,STARLINK-6204,PAYLOAD,2024-05-15 06:22:59,14.98376645,0.0002605,70.0002,337.3584,280.4803,79.6063,-0.00025781,-3.171e-05,0.0,0 STARLINK-6204,1 56488U 23064AS  24136.26596208 -.00003171  00000-0 -25781-3 0  9990,2 56488  70.0002 337.3584 0002605 280.4803  79.6063 14.98376645 57212,6950.049,96.104,573.724,570.103,0.0
56488.0,STARLINK-6204,PAYLOAD,2024-05-15 14:23:39,14.98353727,0.0002242,70.0009,336.5177,275.9618,84.1286,9.5533e-05,1.048e-05,0.0,0 STARLINK-6204,1 56488U 23064AS  24136.59976513  .00001048  00000-0  95533-4 0  9999,2 56488  70.0009 336.5177 0002242 275.9618  84.1286 14.98353727 56907,6950.12,96.105,573.543,570.426,0.0
56488.0,STARLINK-6204,PAYLOAD,2024-05-15 20:48:11,14.98354041,0.000246,69.9995,335.8452,271.3534,88.7343,6.1824e-05,6.45e-06,0.0,0 STARLINK-6204,1 56488U 23064AS  24136.86680146  .00000645  00000-0  61824-4 0  9991,2 56488  69.9995 335.8452 0002460 271.3534  88.7343 14.98354041 57304,6950.119,96.105,573.693,570.274,0.0
56488.0,STARLINK-6204,PAYLOAD,2024-05-15 22:24:19,14.98355507,0.0002456,69.9996,335.677,270.912,89.1757,7.6836e-05,8.25e-06,0.0,0 STARLINK-6204,1 56488U 23064AS  24136.93355894  .00000825  00000-0  76836-4 0  9997,2 56488  69.9996 335.6770 0002456 270.9120  89.1757 14.98355507 56959,6950.114,96.105,573.686,570.272,0.0
